start=new Date('2022-10-24T00:00:00.000Z').valueOf();
sats=[{"MEAN_MOTION_DDOT":"0.0000000000000","INCLINATION":"53.2168","EPOCH":"2022-10-23T22:00:00.999936","REF_FRAME":"TEME","DECAY_DATE":null,"MEAN_ANOMALY":"278.0161","MEAN_MOTION_DOT":"-0.01163809","TLE_LINE1":"1 53432U 22097AW  22296.91667824 -.01163809  00000-0 -26749-1 0  9990","PERIOD":"93.212","ELEMENT_SET_NO":"999","MEAN_ELEMENT_THEORY":"SGP4","CENTER_NAME":"EARTH","PERIAPSIS":"431.026","LAUNCH_DATE":"2022-08-10","SITE":"AFETR","SEMIMAJOR_AXIS":"6809.934","BSTAR":"-0.02674900000000","OBJECT_TYPE":"PAYLOAD","TLE_LINE2":"2 53432  53.2168 239.8710 0001135  86.1797 278.0161 15.44857547  1301","CLASSIFICATION_TYPE":"U","APOAPSIS":"432.572","NORAD_CAT_ID":"53432","ARG_OF_PERICENTER":"86.1797","RA_OF_ASC_NODE":"239.8710","GP_ID":"215997864","TIME_SYSTEM":"UTC","ECCENTRICITY":"0.00011350","MEAN_MOTION":"15.44857547","OBJECT_ID":"2022-097AW","EPHEMERIS_TYPE":"0","OBJECT_NAME":"STARLINK-4557","REV_AT_EPOCH":"130","RCS_SIZE":"LARGE","FILE":"3630604","COUNTRY_CODE":"US"},{"MEAN_MOTION_DDOT":"0.0000000000000","INCLINATION":"53.2167","EPOCH":"2022-10-23T22:00:00.999936","REF_FRAME":"TEME","MEAN_MOTION_DOT":"-0.01164307","TLE_LINE1":"1 53433U 22097AX  22296.91667824 -.01164307  00000-0 -28592-1 0  9993","DECAY_DATE":null,"MEAN_ANOMALY":"258.3736","ELEMENT_SET_NO":"999","PERIOD":"93.330","MEAN_ELEMENT_THEORY":"SGP4","CENTER_NAME":"EARTH","LAUNCH_DATE":"2022-08-10","PERIAPSIS":"436.742","SITE":"AFETR","SEMIMAJOR_AXIS":"6815.638","BSTAR":"-0.02859200000000","CLASSIFICATION_TYPE":"U","TLE_LINE2":"2 53433  53.2167 239.9099 0001117  86.0172 258.3736 15.42918347  1301","OBJECT_TYPE":"PAYLOAD","APOAPSIS":"438.265","RA_OF_ASC_NODE":"239.9099","ARG_OF_PERICENTER":"86.0172","NORAD_CAT_ID":"53433","GP_ID":"215998264","TIME_SYSTEM":"UTC","ECCENTRICITY":"0.00011170","OBJECT_ID":"2022-097AX","MEAN_MOTION":"15.42918347","EPHEMERIS_TYPE":"0","OBJECT_NAME":"STARLINK-4549","FILE":"3630604","REV_AT_EPOCH":"130","RCS_SIZE":"LARGE","COUNTRY_CODE":"US"},{"MEAN_MOTION_DDOT":"0.0000000000000","EPOCH":"2022-10-23T22:00:00.999936","INCLINATION":"53.2167","DECAY_DATE":null,"MEAN_ANOMALY":"286.6430","MEAN_MOTION_DOT":"-0.01166330","TLE_LINE1":"1 53434U 22097AY  22296.91667824 -.01166330  00000-0 -26527-1 0  9998","REF_FRAME":"TEME","PERIOD":"93.194","ELEMENT_SET_NO":"999","CENTER_NAME":"EARTH","MEAN_ELEMENT_THEORY":"SGP4","SITE":"AFETR","SEMIMAJOR_AXIS":"6809.020","PERIAPSIS":"430.089","LAUNCH_DATE":"2022-08-10","BSTAR":"-0.02652700000000","APOAPSIS":"431.681","CLASSIFICATION_TYPE":"U","TLE_LINE2":"2 53434  53.2167 239.8640 0001169  81.0656 286.6430 15.45168520  1300","OBJECT_TYPE":"PAYLOAD","NORAD_CAT_ID":"53434","ARG_OF_PERICENTER":"81.0656","RA_OF_ASC_NODE":"239.8640","GP_ID":"215997283","TIME_SYSTEM":"UTC","ECCENTRICITY":"0.00011690","EPHEMERIS_TYPE":"0","MEAN_MOTION":"15.45168520","OBJECT_ID":"2022-097AY","OBJECT_NAME":"STARLINK-4498","REV_AT_EPOCH":"130","RCS_SIZE":"MEDIUM","FILE":"3630604","COUNTRY_CODE":"US"},{"REV_AT_EPOCH":"130","RCS_SIZE":"LARGE","FILE":"3630604","COUNTRY_CODE":"US","MEAN_MOTION":"15.44798435","OBJECT_ID":"2022-097AZ","EPHEMERIS_TYPE":"0","OBJECT_NAME":"STARLINK-4542","GP_ID":"215998192","ECCENTRICITY":"0.00010920","TIME_SYSTEM":"UTC","CLASSIFICATION_TYPE":"U","TLE_LINE2":"2 53435  53.2168 239.8741 0001092  80.2287 282.2005 15.44798435  1303","OBJECT_TYPE":"PAYLOAD","APOAPSIS":"432.716","NORAD_CAT_ID":"53435","RA_OF_ASC_NODE":"239.8741","ARG_OF_PERICENTER":"80.2287","PERIAPSIS":"431.229","LAUNCH_DATE":"2022-08-10","SEMIMAJOR_AXIS":"6810.107","SITE":"AFETR","BSTAR":"-0.02699500000000","MEAN_ELEMENT_THEORY":"SGP4","CENTER_NAME":"EARTH","REF_FRAME":"TEME","MEAN_ANOMALY":"282.2005","DECAY_DATE":null,"TLE_LINE1":"1 53435U 22097AZ  22296.91667824 -.01171400  00000-0 -26995-1 0  9992","MEAN_MOTION_DOT":"-0.01171400","PERIOD":"93.216","ELEMENT_SET_NO":"999","MEAN_MOTION_DDOT":"0.0000000000000","INCLINATION":"53.2168","EPOCH":"2022-10-23T22:00:00.999936"},{"GP_ID":"215997446","ECCENTRICITY":"0.00011110","TIME_SYSTEM":"UTC","TLE_LINE2":"2 53436  53.2167 239.8572 0001111  81.9579 289.1245 15.45474528  1306","OBJECT_TYPE":"PAYLOAD","CLASSIFICATION_TYPE":"U","APOAPSIS":"430.743","NORAD_CAT_ID":"53436","ARG_OF_PERICENTER":"81.9579","RA_OF_ASC_NODE":"239.8572","REV_AT_EPOCH":"130","RCS_SIZE":"LARGE","FILE":"3630604","COUNTRY_CODE":"US","MEAN_MOTION":"15.45474528","OBJECT_ID":"2022-097BA","EPHEMERIS_TYPE":"0","OBJECT_NAME":"STARLINK-4527","REF_FRAME":"TEME","MEAN_ANOMALY":"289.1245","DECAY_DATE":null,"TLE_LINE1":"1 53436U 22097BA  22296.91667824 -.01161775  00000-0 -26137-1 0  9995","MEAN_MOTION_DOT":"-0.01161775","PERIOD":"93.175","ELEMENT_SET_NO":"999","MEAN_MOTION_DDOT":"0.0000000000000","INCLINATION":"53.2167","EPOCH":"2022-10-23T22:00:00.999936","PERIAPSIS":"429.230","LAUNCH_DATE":"2022-08-10","SEMIMAJOR_AXIS":"6808.121","SITE":"AFETR","BSTAR":"-0.02613700000000","MEAN_ELEMENT_THEORY":"SGP4","CENTER_NAME":"EARTH"},{"COUNTRY_CODE":"US","FILE":"3630604","REV_AT_EPOCH":"130","RCS_SIZE":"LARGE","OBJECT_NAME":"STARLINK-4526","EPHEMERIS_TYPE":"0","OBJECT_ID":"2022-097BC","MEAN_MOTION":"15.45775866","ECCENTRICITY":"0.00010770","TIME_SYSTEM":"UTC","GP_ID":"215998029","RA_OF_ASC_NODE":"239.8508","ARG_OF_PERICENTER":"84.6635","NORAD_CAT_ID":"53438","APOAPSIS":"429.834","TLE_LINE2":"2 53438  53.2168 239.8508 0001077  84.6635 289.6534 15.45775866  1307","CLASSIFICATION_TYPE":"U","OBJECT_TYPE":"PAYLOAD","BSTAR":"-0.02559400000000","SITE":"AFETR","SEMIMAJOR_AXIS":"6807.236","LAUNCH_DATE":"2022-08-10","PERIAPSIS":"428.368","CENTER_NAME":"EARTH","MEAN_ELEMENT_THEORY":"SGP4","ELEMENT_SET_NO":"999","PERIOD":"93.157","TLE_LINE1":"1 53438U 22097BC  22296.91667824 -.01150567  00000-0 -25594-1 0  9990","MEAN_MOTION_DOT":"-0.01150567","MEAN_ANOMALY":"289.6534","DECAY_DATE":null,"REF_FRAME":"TEME","EPOCH":"2022-10-23T22:00:00.999936","INCLINATION":"53.2168","MEAN_MOTION_DDOT":"0.0000000000000"},{"OBJECT_NAME":"STARLINK-4519","EPHEMERIS_TYPE":"0","OBJECT_ID":"2022-097BD","MEAN_MOTION":"15.46091961","COUNTRY_CODE":"US","FILE":"3630604","REV_AT_EPOCH":"130","RCS_SIZE":"LARGE","RA_OF_ASC_NODE":"239.8441","ARG_OF_PERICENTER":"94.2284","NORAD_CAT_ID":"53439","APOAPSIS":"428.929","OBJECT_TYPE":"PAYLOAD","TLE_LINE2":"2 53439  53.2168 239.8441 0001110  94.2284 283.1749 15.46091961  1304","CLASSIFICATION_TYPE":"U","TIME_SYSTEM":"UTC","ECCENTRICITY":"0.00011100","GP_ID":"215997702","CENTER_NAME":"EARTH","MEAN_ELEMENT_THEORY":"SGP4","BSTAR":"-0.02554500000000","SITE":"AFETR","SEMIMAJOR_AXIS":"6806.308","LAUNCH_DATE":"2022-08-10","PERIAPSIS":"427.418","EPOCH":"2022-10-23T22:00:00.999936","INCLINATION":"53.2168","MEAN_MOTION_DDOT":"0.0000000000000","ELEMENT_SET_NO":"999","PERIOD":"93.138","MEAN_MOTION_DOT":"-0.01160113","TLE_LINE1":"1 53439U 22097BD  22296.91667824 -.01160113  00000-0 -25545-1 0  9995","MEAN_ANOMALY":"283.1749","DECAY_DATE":null,"REF_FRAME":"TEME"},{"MEAN_MOTION":"15.01320836","OBJECT_ID":"2022-099A","EPHEMERIS_TYPE":"0","OBJECT_NAME":"STARLINK-4415","RCS_SIZE":"LARGE","REV_AT_EPOCH":"130","FILE":"3630604","COUNTRY_CODE":"US","TLE_LINE2":"2 53465  97.6578  56.3816 0001958  47.8849 265.1965 15.01320836  1306","OBJECT_TYPE":"PAYLOAD","CLASSIFICATION_TYPE":"U","APOAPSIS":"564.183","NORAD_CAT_ID":"53465","ARG_OF_PERICENTER":"47.8849","RA_OF_ASC_NODE":"56.3816","GP_ID":"215997449","ECCENTRICITY":"0.00019580","TIME_SYSTEM":"UTC","MEAN_ELEMENT_THEORY":"SGP4","CENTER_NAME":"EARTH","PERIAPSIS":"561.465","LAUNCH_DATE":"2022-08-12","SEMIMAJOR_AXIS":"6940.959","SITE":"AFWTR","BSTAR":"-0.00790540000000","MEAN_MOTION_DDOT":"0.0000000000000","INCLINATION":"97.6578","EPOCH":"2022-10-23T22:00:00.999936","REF_FRAME":"TEME","DECAY_DATE":null,"MEAN_ANOMALY":"265.1965","TLE_LINE1":"1 53465U 22099A   22296.91667824 -.00100332  00000-0 -79054-2 0  9997","MEAN_MOTION_DOT":"-0.00100332","PERIOD":"95.916","ELEMENT_SET_NO":"999"},{"SEMIMAJOR_AXIS":"6941.021","SITE":"AFWTR","PERIAPSIS":"561.583","LAUNCH_DATE":"2022-08-12","BSTAR":"-0.00721460000000","CENTER_NAME":"EARTH","MEAN_ELEMENT_THEORY":"SGP4","DECAY_DATE":null,"MEAN_ANOMALY":"283.3702","MEAN_MOTION_DOT":"-0.00091633","TLE_LINE1":"1 53466U 22099B   22296.91667824 -.00091633  00000-0 -72146-2 0  9996","REF_FRAME":"TEME","PERIOD":"95.917","ELEMENT_SET_NO":"999","MEAN_MOTION_DDOT":"0.0000000000000","EPOCH":"2022-10-23T22:00:00.999936","INCLINATION":"97.6597","RCS_SIZE":"LARGE","REV_AT_EPOCH":"130","FILE":"3630604","COUNTRY_CODE":"US","EPHEMERIS_TYPE":"0","MEAN_MOTION":"15.01300705","OBJECT_ID":"2022-099B","OBJECT_NAME":"STARLINK-4398","GP_ID":"215998032","TIME_SYSTEM":"UTC","ECCENTRICITY":"0.00018780","APOAPSIS":"564.190","CLASSIFICATION_TYPE":"U","TLE_LINE2":"2 53466  97.6597  56.3734 0001878  39.7050 283.3702 15.01300705  1306","OBJECT_TYPE":"PAYLOAD","NORAD_CAT_ID":"53466","RA_OF_ASC_NODE":"56.3734","ARG_OF_PERICENTER":"39.7050"},{"ECCENTRICITY":"0.00016750","TIME_SYSTEM":"UTC","GP_ID":"215997705","NORAD_CAT_ID":"53467","RA_OF_ASC_NODE":"56.3744","ARG_OF_PERICENTER":"60.5065","APOAPSIS":"564.010","TLE_LINE2":"2 53467  97.6593  56.3744 0001675  60.5065 272.5790 15.01313270  1305","CLASSIFICATION_TYPE":"U","OBJECT_TYPE":"PAYLOAD","COUNTRY_CODE":"US","REV_AT_EPOCH":"130","RCS_SIZE":"LARGE","FILE":"3630604","OBJECT_NAME":"STARLINK-4394","EPHEMERIS_TYPE":"0","MEAN_MOTION":"15.01313270","OBJECT_ID":"2022-099C","PERIOD":"95.916","ELEMENT_SET_NO":"999","MEAN_ANOMALY":"272.5790","DECAY_DATE":null,"TLE_LINE1":"1 53467U 22099C   22296.91667824 -.00096875  00000-0 -76308-2 0  9994","MEAN_MOTION_DOT":"-0.00096875","REF_FRAME":"TEME","EPOCH":"2022-10-23T22:00:00.999936","INCLINATION":"97.6593","MEAN_MOTION_DDOT":"0.0000000000000","BSTAR":"-0.00763080000000","SEMIMAJOR_AXIS":"6940.983","SITE":"AFWTR","PERIAPSIS":"561.685","LAUNCH_DATE":"2022-08-12","CENTER_NAME":"EARTH","MEAN_ELEMENT_THEORY":"SGP4"}];
